STARLINK-32328          
1 62489U 25003C   26068.00439021  .00031439  00000+0  11469-2 0  9992
2 62489  43.0025 293.1087 0001427 259.7364 100.3326 15.27588130 66563
COSMOS 2588             
1 64095U 25109A   26068.81179522  .00009169  00000+0  32611-3 0  9998
2 64095  72.9704  73.5401 0005019 308.6780  51.3966 15.29122656 44425
